NAVSTAR 77 (USA 289)    
1 43873U 18109A   24282.78948580  .00000052  00000+0  00000+0 0  9996
2 43873  55.3426 116.5376 0031151 191.8111 182.2276  2.00560557 42716
